start=new Date('2023-06-19T00:00:00.000Z').valueOf();
sats=[{"ELEMENT_SET_NO":"999","MEAN_MOTION_DDOT":"0.0000000000000","OBJECT_NAME":"STARLINK-1651","TIME_SYSTEM":"UTC","APOAPSIS":"548.514","SEMIMAJOR_AXIS":"6925.379","MEAN_ELEMENT_THEORY":"SGP4","LAUNCH_DATE":"2020-09-03","PERIAPSIS":"545.975","ECCENTRICITY":"0.00018330","MEAN_MOTION":"15.06390037","MEAN_MOTION_DOT":"0.00001005","EPHEMERIS_TYPE":"0","OBJECT_ID":"2020-062AT","FILE":"3936745","RCS_SIZE":"LARGE","CENTER_NAME":"EARTH","REF_FRAME":"TEME","COUNTRY_CODE":"US","OBJECT_TYPE":"PAYLOAD","MEAN_ANOMALY":"260.8848","RA_OF_ASC_NODE":"117.5500","INCLINATION":"53.0526","ARG_OF_PERICENTER":"99.2348","TLE_LINE2":"2 46366  53.0526 117.5500 0001833  99.2348 260.8848 15.06390037154995","EPOCH":"2023-06-18T20:46:45.780096","GP_ID":"234243266","NORAD_CAT_ID":"46366","SITE":"AFETR","PERIOD":"95.593","BSTAR":"0.00008635700000","TLE_LINE1":"1 46366U 20062AT  23169.86580764  .00001005  00000-0  86357-4 0  9999","DECAY_DATE":null,"CLASSIFICATION_TYPE":"U","REV_AT_EPOCH":"15499"},{"OBJECT_NAME":"STARLINK-1658","ELEMENT_SET_NO":"999","MEAN_MOTION_DDOT":"0.0000000000000","APOAPSIS":"548.124","TIME_SYSTEM":"UTC","MEAN_ELEMENT_THEORY":"SGP4","SEMIMAJOR_AXIS":"6925.361","ECCENTRICITY":"0.00012970","LAUNCH_DATE":"2020-09-03","PERIAPSIS":"546.328","RCS_SIZE":"LARGE","FILE":"3936745","OBJECT_ID":"2020-062AV","EPHEMERIS_TYPE":"0","MEAN_MOTION_DOT":"0.00000621","MEAN_MOTION":"15.06395912","TLE_LINE2":"2 46368  53.0527 143.4473 0001297  86.7535 273.3602 15.06395912154622","ARG_OF_PERICENTER":"86.7535","INCLINATION":"53.0527","OBJECT_TYPE":"PAYLOAD","MEAN_ANOMALY":"273.3602","RA_OF_ASC_NODE":"143.4473","COUNTRY_CODE":"US","REF_FRAME":"TEME","CENTER_NAME":"EARTH","SITE":"AFETR","NORAD_CAT_ID":"46368","EPOCH":"2023-06-18T15:58:05.618784","GP_ID":"234242523","REV_AT_EPOCH":"15462","CLASSIFICATION_TYPE":"U","DECAY_DATE":null,"TLE_LINE1":"1 46368U 20062AV  23169.66534281  .00000621  00000-0  60596-4 0  9992","BSTAR":"0.00006059600000","PERIOD":"95.592"},{"LAUNCH_DATE":"2020-09-03","PERIAPSIS":"546.437","ECCENTRICITY":"0.00011830","SEMIMAJOR_AXIS":"6925.391","MEAN_ELEMENT_THEORY":"SGP4","TIME_SYSTEM":"UTC","APOAPSIS":"548.075","MEAN_MOTION_DDOT":"0.0000000000000","ELEMENT_SET_NO":"999","OBJECT_NAME":"STARLINK-1670","PERIOD":"95.593","BSTAR":"0.00000931860000","TLE_LINE1":"1 46370U 20062AX  23169.62942912 -.00000143  00000-0  93186-5 0  9997","CLASSIFICATION_TYPE":"U","DECAY_DATE":null,"REV_AT_EPOCH":"15461","GP_ID":"234242274","EPOCH":"2023-06-18T15:06:22.675968","NORAD_CAT_ID":"46370","SITE":"AFETR","CENTER_NAME":"EARTH","REF_FRAME":"TEME","COUNTRY_CODE":"US","RA_OF_ASC_NODE":"143.6185","OBJECT_TYPE":"PAYLOAD","MEAN_ANOMALY":"269.6546","INCLINATION":"53.0523","ARG_OF_PERICENTER":"90.4579","TLE_LINE2":"2 46370  53.0523 143.6185 0001183  90.4579 269.6546 15.06386147154611","MEAN_MOTION":"15.06386147","MEAN_MOTION_DOT":"-0.00000143","EPHEMERIS_TYPE":"0","OBJECT_ID":"2020-062AX","FILE":"3936745","RCS_SIZE":"LARGE"},{"SEMIMAJOR_AXIS":"6925.365","MEAN_ELEMENT_THEORY":"SGP4","ECCENTRICITY":"0.00010870","PERIAPSIS":"546.477","LAUNCH_DATE":"2020-09-03","ELEMENT_SET_NO":"999","MEAN_MOTION_DDOT":"0.0000000000000","OBJECT_NAME":"STARLINK-1688","APOAPSIS":"547.982","TIME_SYSTEM":"UTC","SITE":"AFETR","NORAD_CAT_ID":"46371","EPOCH":"2023-06-18T14:55:45.688512","GP_ID":"234243023","CLASSIFICATION_TYPE":"U","DECAY_DATE":null,"REV_AT_EPOCH":"15461","PERIOD":"95.592","TLE_LINE1":"1 46371U 20062AY  23169.62205658 -.00000739  00000-0 -30716-4 0  9998","BSTAR":"-0.00003071600000","OBJECT_ID":"2020-062AY","EPHEMERIS_TYPE":"0","RCS_SIZE":"LARGE","FILE":"3936745","MEAN_MOTION":"15.06394744","MEAN_MOTION_DOT":"-0.00000739","INCLINATION":"53.0531","ARG_OF_PERICENTER":"92.7628","TLE_LINE2":"2 46371  53.0531 143.6490 0001087  92.7628 267.3485 15.06394744154612","REF_FRAME":"TEME","CENTER_NAME":"EARTH","MEAN_ANOMALY":"267.3485","OBJECT_TYPE":"PAYLOAD","RA_OF_ASC_NODE":"143.6490","COUNTRY_CODE":"US"},{"MEAN_MOTION":"15.06392436","MEAN_MOTION_DOT":"-0.00001176","EPHEMERIS_TYPE":"0","OBJECT_ID":"2020-062AZ","FILE":"3936745","RCS_SIZE":"LARGE","CENTER_NAME":"EARTH","REF_FRAME":"TEME","COUNTRY_CODE":"US","OBJECT_TYPE":"PAYLOAD","RA_OF_ASC_NODE":"163.3134","MEAN_ANOMALY":"283.3447","INCLINATION":"53.0526","TLE_LINE2":"2 46372  53.0526 163.3134 0000945  76.7647 283.3447 15.06392436154348","ARG_OF_PERICENTER":"76.7647","GP_ID":"234243766","EPOCH":"2023-06-18T16:44:34.665216","NORAD_CAT_ID":"46372","SITE":"AFETR","PERIOD":"95.593","BSTAR":"-0.00006010000000","TLE_LINE1":"1 46372U 20062AZ  23169.69762344 -.00001176  00000-0 -60100-4 0  9992","DECAY_DATE":null,"CLASSIFICATION_TYPE":"U","REV_AT_EPOCH":"15434","ELEMENT_SET_NO":"999","MEAN_MOTION_DDOT":"0.0000000000000","OBJECT_NAME":"STARLINK-1689","TIME_SYSTEM":"UTC","APOAPSIS":"547.891","SEMIMAJOR_AXIS":"6925.372","MEAN_ELEMENT_THEORY":"SGP4","LAUNCH_DATE":"2020-09-03","PERIAPSIS":"546.582","ECCENTRICITY":"0.00009450"},{"APOAPSIS":"549.131","TIME_SYSTEM":"UTC","OBJECT_NAME":"STARLINK-1711","ELEMENT_SET_NO":"999","MEAN_MOTION_DDOT":"0.0000000000000","ECCENTRICITY":"0.00027670","PERIAPSIS":"545.298","LAUNCH_DATE":"2020-09-03","MEAN_ELEMENT_THEORY":"SGP4","SEMIMAJOR_AXIS":"6925.349","OBJECT_TYPE":"PAYLOAD","MEAN_ANOMALY":"276.3706","RA_OF_ASC_NODE":"92.9558","COUNTRY_CODE":"US","REF_FRAME":"TEME","CENTER_NAME":"EARTH","TLE_LINE2":"2 46374  53.0535  92.9558 0002767  83.7598 276.3706 15.06399726155490","ARG_OF_PERICENTER":"83.7598","INCLINATION":"53.0535","MEAN_MOTION_DOT":"0.00017659","MEAN_MOTION":"15.06399726","RCS_SIZE":"LARGE","FILE":"3936494","OBJECT_ID":"2020-062BB","EPHEMERIS_TYPE":"0","TLE_LINE1":"1 46374U 20062BB  23169.77780145  .00017659  00000-0  12014-2 0  9992","BSTAR":"0.00120140000000","PERIOD":"95.592","REV_AT_EPOCH":"15549","CLASSIFICATION_TYPE":"U","DECAY_DATE":null,"NORAD_CAT_ID":"46374","EPOCH":"2023-06-18T18:40:02.045280","GP_ID":"234217077","SITE":"AFETR"},{"RA_OF_ASC_NODE":"117.5916","OBJECT_TYPE":"PAYLOAD","MEAN_ANOMALY":"266.6520","COUNTRY_CODE":"US","REF_FRAME":"TEME","CENTER_NAME":"EARTH","TLE_LINE2":"2 46375  53.0545 117.5916 0001542  93.4645 266.6520 15.06391120154995","ARG_OF_PERICENTER":"93.4645","INCLINATION":"53.0545","MEAN_MOTION_DOT":"0.00004791","MEAN_MOTION":"15.06391120","RCS_SIZE":"LARGE","FILE":"3936745","OBJECT_ID":"2020-062BC","EPHEMERIS_TYPE":"0","TLE_LINE1":"1 46375U 20062BC  23169.85843790  .00004791  00000-0  34040-3 0  9995","BSTAR":"0.00034040000000","PERIOD":"95.593","REV_AT_EPOCH":"15499","CLASSIFICATION_TYPE":"U","DECAY_DATE":null,"NORAD_CAT_ID":"46375","EPOCH":"2023-06-18T20:36:09.034560","GP_ID":"234242774","SITE":"AFETR","APOAPSIS":"548.309","TIME_SYSTEM":"UTC","OBJECT_NAME":"STARLINK-1724","MEAN_MOTION_DDOT":"0.0000000000000","ELEMENT_SET_NO":"999","ECCENTRICITY":"0.00015420","LAUNCH_DATE":"2020-09-03","PERIAPSIS":"546.173","MEAN_ELEMENT_THEORY":"SGP4","SEMIMAJOR_AXIS":"6925.376"},{"MEAN_MOTION_DDOT":"0.0000000000000","ELEMENT_SET_NO":"999","OBJECT_NAME":"STARLINK-1742","APOAPSIS":"547.932","TIME_SYSTEM":"UTC","SEMIMAJOR_AXIS":"6925.365","MEAN_ELEMENT_THEORY":"SGP4","ECCENTRICITY":"0.00010130","LAUNCH_DATE":"2020-09-03","PERIAPSIS":"546.529","OBJECT_ID":"2020-062BD","EPHEMERIS_TYPE":"0","RCS_SIZE":"LARGE","FILE":"3936420","MEAN_MOTION":"15.06394478","MEAN_MOTION_DOT":"0.00000476","INCLINATION":"53.0544","ARG_OF_PERICENTER":"103.5041","TLE_LINE2":"2 46376  53.0544 120.7964 0001013 103.5041 256.6061 15.06394478154886","REF_FRAME":"TEME","CENTER_NAME":"EARTH","OBJECT_TYPE":"PAYLOAD","MEAN_ANOMALY":"256.6061","RA_OF_ASC_NODE":"120.7964","COUNTRY_CODE":"US","SITE":"AFETR","NORAD_CAT_ID":"46376","GP_ID":"234208538","EPOCH":"2023-06-18T03:26:26.248704","CLASSIFICATION_TYPE":"U","DECAY_DATE":null,"REV_AT_EPOCH":"15488","PERIOD":"95.592","TLE_LINE1":"1 46376U 20062BD  23169.14335936  .00000476  00000-0  50843-4 0  9992","BSTAR":"0.00005084300000"},{"ECCENTRICITY":"0.00014070","LAUNCH_DATE":"2020-09-03","PERIAPSIS":"546.265","SEMIMAJOR_AXIS":"6925.375","MEAN_ELEMENT_THEORY":"SGP4","APOAPSIS":"548.214","TIME_SYSTEM":"UTC","ELEMENT_SET_NO":"999","MEAN_MOTION_DDOT":"0.0000000000000","OBJECT_NAME":"STARLINK-1758","PERIOD":"95.593","TLE_LINE1":"1 46380U 20062BH  23169.64049513  .00000015  00000-0  19938-4 0  9994","BSTAR":"0.00001993800000","DECAY_DATE":null,"CLASSIFICATION_TYPE":"U","REV_AT_EPOCH":"15461","NORAD_CAT_ID":"46380","GP_ID":"234243267","EPOCH":"2023-06-18T15:22:18.779232","SITE":"AFETR","REF_FRAME":"TEME","CENTER_NAME":"EARTH","OBJECT_TYPE":"PAYLOAD","MEAN_ANOMALY":"273.5122","RA_OF_ASC_NODE":"143.5649","COUNTRY_CODE":"US","INCLINATION":"53.0546","ARG_OF_PERICENTER":"86.6028","TLE_LINE2":"2 46380  53.0546 143.5649 0001407  86.6028 273.5122 15.06391518154618","MEAN_MOTION":"15.06391518","MEAN_MOTION_DOT":"0.00000015","OBJECT_ID":"2020-062BH","EPHEMERIS_TYPE":"0","RCS_SIZE":"LARGE","FILE":"3936745"},{"CLASSIFICATION_TYPE":"U","DECAY_DATE":null,"REV_AT_EPOCH":"15495","PERIOD":"95.592","BSTAR":"-0.00000669290000","TLE_LINE1":"1 46382U 20062BK  23169.55618355 -.00000381  00000-0 -66929-5 0  9993","SITE":"AFETR","GP_ID":"234242524","EPOCH":"2023-06-18T13:20:54.258720","NORAD_CAT_ID":"46382","INCLINATION":"53.0543","TLE_LINE2":"2 46382  53.0543 118.9466 0001356  84.5406 275.5737 15.06403711154950","ARG_OF_PERICENTER":"84.5406","CENTER_NAME":"EARTH","REF_FRAME":"TEME","COUNTRY_CODE":"US","OBJECT_TYPE":"PAYLOAD","RA_OF_ASC_NODE":"118.9466","MEAN_ANOMALY":"275.5737","EPHEMERIS_TYPE":"0","OBJECT_ID":"2020-062BK","FILE":"3936745","RCS_SIZE":"LARGE","MEAN_MOTION":"15.06403711","MEAN_MOTION_DOT":"-0.00000381","LAUNCH_DATE":"2020-09-03","PERIAPSIS":"546.263","ECCENTRICITY":"0.00013560","SEMIMAJOR_AXIS":"6925.337","MEAN_ELEMENT_THEORY":"SGP4","TIME_SYSTEM":"UTC","APOAPSIS":"548.141","ELEMENT_SET_NO":"999","MEAN_MOTION_DDOT":"0.0000000000000","OBJECT_NAME":"STARLINK-1769"}];
